1 43057U 17079C   21003.07716428  .00000006  00000-0  00000+0 0  9999
2 43057  56.1132 276.3175 0004423 311.2241  48.8049  1.70473555 19041
1 43057U 17079C   21003.07716428  .00000006  00000-0  00000-0 0  9990
2 43057  56.1132 276.3175 0004423 311.2241  48.8049  1.70473555 19041
1 43057U 17079C   21005.42349875 -.00000005  00000-0  00000+0 0  9998
2 43057  56.1124 276.2529 0004413 311.9637  48.0573  1.70473531 19081
1 43057U 17079C   21005.42349875 -.00000005  00000-0  00000-0 0  9999
2 43057  56.1124 276.2529 0004413 311.9637  48.0573  1.70473531 19081
1 43057U 17079C   21006.01008177 -.00000007  00000-0  00000-0 0  9994
2 43057  56.1117 276.2368 0004412 312.0344  47.9842  1.70473527 19093
1 43057U 17079C   21010.11619749 -.00000007  00000-0  00000+0 0  9992
2 43057  56.1085 276.1237 0004331 313.8636  46.1587  1.70473548 19162
1 43057U 17079C   21010.11619749 -.00000007  00000-0  00000-0 0  9993
2 43057  56.1085 276.1237 0004331 313.8636  46.1587  1.70473548 19162
1 43057U 17079C   21011.87597420 -.00000004  00000-0  00000+0 0  9994
2 43057  56.1071 276.0753 0004310 314.2920  45.7401  1.70473595 19192
1 43057U 17079C   21011.87597420 -.00000004  00000-0  00000-0 0  9995
2 43057  56.1071 276.0753 0004310 314.2920  45.7401  1.70473595 19192
1 43057U 17079C   21013.04915909 -.00000005  00000-0  00000-0 0  9993
2 43057  56.1056 276.0430 0004262 315.3213  44.7170  1.70473615 19218
1 43057U 17079C   21013.04916048 -.00000005  00000-0  00000+0 0  9997
2 43057  56.1052 276.0431 0004252 315.5540  44.4845  1.70473601 19210
1 43057U 17079C   21014.22233652 -.00000008  00000-0  00000+0 0  9994
2 43057  56.1057 276.0107 0004261 315.3229  44.7183  1.70473656 19237
1 43057U 17079C   21014.22233652 -.00000008  00000-0  00000-0 0  9995
2 43057  56.1057 276.0107 0004261 315.3229  44.7183  1.70473656 19237
1 43057U 17079C   21015.39551133 -.00000012  00000-0  00000+0 0  9995
2 43057  56.1045 275.9785 0004233 315.8468  44.1951  1.70473696 19256
1 43057U 17079C   21015.39551133 -.00000012  00000-0  00000-0 0  9996
2 43057  56.1045 275.9785 0004233 315.8468  44.1951  1.70473696 19256
1 43057U 17079C   21015.98209636 -.00000014  00000-0  00000-0 0  9991
2 43057  56.1044 275.9623 0004228 315.8712  44.1699  1.70473716 19265
1 43057U 17079C   21017.15526606 -.00000017  00000-0  00000+0 0  9993
2 43057  56.1033 275.9301 0004191 316.3332  43.7058  1.70473760 19284
1 43057U 17079C   21017.15526606 -.00000017  00000-0  00000-0 0  9994
2 43057  56.1033 275.9301 0004191 316.3332  43.7058  1.70473760 19284
1 43057U 17079C   21017.74185043 -.00000017  00000-0  00000-0 0  9995
2 43057  56.1029 275.9140 0004176 316.5278  43.5098  1.70473776 19294
1 43057U 17079C   21019.50160504 -.00000014  00000-0  00000+0 0  9992
2 43057  56.1016 275.8655 0004130 317.0983  42.9358  1.70473814 19328
1 43057U 17079C   21019.50160504 -.00000014  00000-0  00000-0 0  9993
2 43057  56.1016 275.8655 0004130 317.0983  42.9358  1.70473814 19328
1 43057U 17079C   21021.84795286 -.00000001  00000-0  00000+0 0  9999
2 43057  56.0994 275.8010 0004095 317.7964  42.2386  1.70473860 19362
1 43057U 17079C   21021.84795286 -.00000001  00000-0  00000-0 0  9990
2 43057  56.0994 275.8010 0004095 317.7964  42.2386  1.70473860 19362
1 43057U 17079C   21023.02113190  .00000008  00000-0  00000+0 0  9995
2 43057  56.0983 275.7687 0004062 318.2702  41.7688  1.70473868 19388
1 43057U 17079C   21023.02113190  .00000008  00000-0  00000-0 0  9996
2 43057  56.0983 275.7687 0004062 318.2702  41.7688  1.70473868 19388
1 43057U 17079C   21025.36749838  .00000025  00000-0  00000+0 0  9997
2 43057  56.0961 275.7041 0003996 319.5487  40.5029  1.70473854 19423
1 43057U 17079C   21025.36749838  .00000025  00000-0  00000-0 0  9998
2 43057  56.0961 275.7041 0003996 319.5487  40.5029  1.70473854 19423
1 43057U 17079C   21029.47362280  .00000040  00000-0  00000+0 0  9992
2 43057  56.0930 275.5909 0003962 320.0528  40.0113  1.70473777 19496
1 43057U 17079C   21029.47362280  .00000040  00000-0  00000-0 0  9993
2 43057  56.0930 275.5909 0003962 320.0528  40.0113  1.70473777 19496
1 43057U 17079C   21030.06020723  .00000039  00000-0  00000-0 0  9991
2 43057  56.0923 275.5748 0003943 320.4207  39.6425  1.70473765 19505
1 43057U 17079C   21032.40653499  .00000028  00000-0  00000+0 0  9990
2 43057  56.0911 275.5101 0003909 321.2893  38.7630  1.70473723 19543
1 43057U 17079C   21032.99311595  .00000026  00000-0  00000-0 0  9991
2 43057  56.0906 275.4940 0003898 321.5716  38.4773  1.70473718 19551
1 43057U 17079C   21034.75286321  .00000020  00000-0  00000+0 0  9998
2 43057  56.0885 275.4454 0003868 322.3462  37.6951  1.70473709 19583
1 43057U 17079C   21034.75286321  .00000020  00000-0  00000-0 0  9999
2 43057  56.0885 275.4454 0003868 322.3462  37.6951  1.70473709 19583
1 43057U 17079C   21037.09921000  .00000022  00000-0  00000+0 0  9990
2 43057  56.0880 275.3807 0003813 323.1344  36.9076  1.70473723 19628
1 43057U 17079C   21037.09921000  .00000022  00000-0  00000-0 0  9991
2 43057  56.0880 275.3807 0003813 323.1344  36.9076  1.70473723 19628
1 43057U 17079C   21040.03215894  .00000025  00000-0  00000+0 0  9998
2 43057  56.0848 275.2998 0003718 324.4841  35.5684  1.70473792 19673
1 43057U 17079C   21040.03215894  .00000025  00000-0  00000-0 0  9999
2 43057  56.0848 275.2998 0003718 324.4841  35.5684  1.70473792 19673
1 43057U 17079C   21047.65774322  .00000013  00000-0  00000+0 0  9996
2 43057  56.0808 275.0894 0003600 325.4299  34.6022  1.70474029 19805
1 43057U 17079C   21047.65774322  .00000013  00000-0  00000-0 0  9997
2 43057  56.0808 275.0894 0003600 325.4299  34.6022  1.70474029 19805
1 43057U 17079C   21048.24432716  .00000016  00000-0  00000-0 0  9994
2 43057  56.0796 275.0732 0003545 325.9014  34.1302  1.70474058 19819
1 43057U 17079C   21049.41749819  .00000023  00000-0  00000+0 0  9996
2 43057  56.0787 275.0409 0003521 326.1065  33.9250  1.70474067 19834
1 43057U 17079C   21049.41749819  .00000023  00000-0  00000-0 0  9997
2 43057  56.0787 275.0409 0003521 326.1065  33.9250  1.70474067 19834
